start=new Date('2022-10-11T00:00:00.000Z').valueOf();
sats=[{"OBJECT_NAME":"STARLINK-2156","TLE_LINE2":"2 47742  53.0552  35.6010 0001910  51.5704 308.5456 15.06404263 90106","SITE":"AFETR","NORAD_CAT_ID":"47742","TIME_SYSTEM":"UTC","SEMIMAJOR_AXIS":"6925.335","DECAY_DATE":null,"MEAN_ANOMALY":"308.5456","FILE":"3601747","MEAN_MOTION_DOT":"0.00001045","OBJECT_TYPE":"PAYLOAD","LAUNCH_DATE":"2021-03-04","PERIAPSIS":"545.878","ARG_OF_PERICENTER":"51.5704","CLASSIFICATION_TYPE":"U","BSTAR":"0.00008905400000","REF_FRAME":"TEME","OBJECT_ID":"2021-017W","GP_ID":"214716870","APOAPSIS":"548.523","RCS_SIZE":"LARGE","ELEMENT_SET_NO":"999","MEAN_MOTION":"15.06404263","EPHEMERIS_TYPE":"0","MEAN_MOTION_DDOT":"0.0000000000000","INCLINATION":"53.0552","PERIOD":"95.592","COUNTRY_CODE":"US","TLE_LINE1":"1 47742U 21017W   22283.58516152  .00001045  00000-0  89054-4 0  9995","RA_OF_ASC_NODE":"35.6010","REV_AT_EPOCH":"9010","CENTER_NAME":"EARTH","EPOCH":"2022-10-10T14:02:37.955328","ECCENTRICITY":"0.00019100","MEAN_ELEMENT_THEORY":"SGP4"},{"TLE_LINE1":"1 47743U 21017X   22283.74365473  .00000796  00000-0  72305-4 0  9995","PERIOD":"95.592","COUNTRY_CODE":"US","RCS_SIZE":"LARGE","ELEMENT_SET_NO":"999","EPHEMERIS_TYPE":"0","MEAN_MOTION":"15.06401001","MEAN_MOTION_DDOT":"0.0000000000000","INCLINATION":"53.0552","MEAN_ELEMENT_THEORY":"SGP4","EPOCH":"2022-10-10T17:50:51.768672","ECCENTRICITY":"0.00016700","RA_OF_ASC_NODE":"34.8948","REV_AT_EPOCH":"9010","CENTER_NAME":"EARTH","MEAN_ANOMALY":"303.4789","DECAY_DATE":null,"FILE":"3601747","SEMIMAJOR_AXIS":"6925.345","TIME_SYSTEM":"UTC","SITE":"AFETR","NORAD_CAT_ID":"47743","OBJECT_NAME":"STARLINK-2157","TLE_LINE2":"2 47743  53.0552  34.8948 0001670  56.6359 303.4789 15.06401001 90103","REF_FRAME":"TEME","GP_ID":"214717602","OBJECT_ID":"2021-017X","APOAPSIS":"548.367","CLASSIFICATION_TYPE":"U","BSTAR":"0.00007230500000","ARG_OF_PERICENTER":"56.6359","MEAN_MOTION_DOT":"0.00000796","OBJECT_TYPE":"PAYLOAD","LAUNCH_DATE":"2021-03-04","PERIAPSIS":"546.054"},{"PERIOD":"95.592","COUNTRY_CODE":"US","RCS_SIZE":"LARGE","ELEMENT_SET_NO":"999","EPHEMERIS_TYPE":"0","MEAN_MOTION":"15.06400079","INCLINATION":"53.0562","MEAN_MOTION_DDOT":"0.0000000000000","TLE_LINE1":"1 47744U 21017Y   22283.71690066 -.00000070  00000-0  14219-4 0  9998","EPOCH":"2022-10-10T17:12:20.217024","ECCENTRICITY":"0.00014720","RA_OF_ASC_NODE":"34.9566","REV_AT_EPOCH":"9012","CENTER_NAME":"EARTH","MEAN_ELEMENT_THEORY":"SGP4","NORAD_CAT_ID":"47744","SITE":"AFETR","TLE_LINE2":"2 47744  53.0562  34.9566 0001472  70.7058 289.4090 15.06400079 90129","OBJECT_NAME":"STARLINK-2158","MEAN_ANOMALY":"289.4090","DECAY_DATE":null,"FILE":"3601747","TIME_SYSTEM":"UTC","SEMIMAJOR_AXIS":"6925.348","ARG_OF_PERICENTER":"70.7058","MEAN_MOTION_DOT":"-0.00000070","OBJECT_TYPE":"PAYLOAD","LAUNCH_DATE":"2021-03-04","PERIAPSIS":"546.194","REF_FRAME":"TEME","GP_ID":"214716369","OBJECT_ID":"2021-017Y","APOAPSIS":"548.233","CLASSIFICATION_TYPE":"U","BSTAR":"0.00001421900000"},{"REF_FRAME":"TEME","OBJECT_ID":"2021-017Z","GP_ID":"214716119","APOAPSIS":"548.216","CLASSIFICATION_TYPE":"U","BSTAR":"0.00139090000000","ARG_OF_PERICENTER":"60.3090","MEAN_MOTION_DOT":"0.00020502","OBJECT_TYPE":"PAYLOAD","PERIAPSIS":"546.150","LAUNCH_DATE":"2021-03-04","DECAY_DATE":null,"MEAN_ANOMALY":"299.8048","FILE":"3601747","TIME_SYSTEM":"UTC","SEMIMAJOR_AXIS":"6925.318","SITE":"AFETR","NORAD_CAT_ID":"47745","TLE_LINE2":"2 47745  53.0562  45.4458 0001492  60.3090 299.8048 15.06409925 89912","OBJECT_NAME":"STARLINK-2159","MEAN_ELEMENT_THEORY":"SGP4","EPOCH":"2022-10-10T14:49:04.147104","ECCENTRICITY":"0.00014920","RA_OF_ASC_NODE":"45.4458","REV_AT_EPOCH":"8991","CENTER_NAME":"EARTH","TLE_LINE1":"1 47745U 21017Z   22283.61740911  .00020502  00000-0  13909-2 0  9997","PERIOD":"95.592","COUNTRY_CODE":"US","RCS_SIZE":"LARGE","ELEMENT_SET_NO":"999","MEAN_MOTION":"15.06409925","EPHEMERIS_TYPE":"0","MEAN_MOTION_DDOT":"0.0000000000000","INCLINATION":"53.0562"},{"ARG_OF_PERICENTER":"70.6837","OBJECT_TYPE":"PAYLOAD","LAUNCH_DATE":"2021-03-04","PERIAPSIS":"546.217","MEAN_MOTION_DOT":"0.00001808","APOAPSIS":"548.221","REF_FRAME":"TEME","GP_ID":"214717371","OBJECT_ID":"2021-017AA","CLASSIFICATION_TYPE":"U","BSTAR":"0.00014028000000","SITE":"AFETR","NORAD_CAT_ID":"47746","OBJECT_NAME":"STARLINK-2160","TLE_LINE2":"2 47746  53.0558  44.8997 0001447  70.6837 289.4308 15.06398097 89924","FILE":"3601747","MEAN_ANOMALY":"289.4308","DECAY_DATE":null,"TIME_SYSTEM":"UTC","SEMIMAJOR_AXIS":"6925.354","ECCENTRICITY":"0.00014470","EPOCH":"2022-10-10T17:49:31.858176","CENTER_NAME":"EARTH","RA_OF_ASC_NODE":"44.8997","REV_AT_EPOCH":"8992","MEAN_ELEMENT_THEORY":"SGP4","COUNTRY_CODE":"US","PERIOD":"95.592","MEAN_MOTION":"15.06398097","EPHEMERIS_TYPE":"0","INCLINATION":"53.0558","MEAN_MOTION_DDOT":"0.0000000000000","RCS_SIZE":"LARGE","ELEMENT_SET_NO":"999","TLE_LINE1":"1 47746U 21017AA  22283.74272984  .00001808  00000-0  14028-3 0  9994"},{"SITE":"AFETR","NORAD_CAT_ID":"47747","OBJECT_NAME":"STARLINK-2161","TLE_LINE2":"2 47747  53.0557  34.8942 0001621  58.9290 301.1858 15.06395471 90106","MEAN_ANOMALY":"301.1858","DECAY_DATE":null,"FILE":"3601747","TIME_SYSTEM":"UTC","SEMIMAJOR_AXIS":"6925.362","ARG_OF_PERICENTER":"58.9290","MEAN_MOTION_DOT":"0.00002687","OBJECT_TYPE":"PAYLOAD","PERIAPSIS":"546.105","LAUNCH_DATE":"2021-03-04","REF_FRAME":"TEME","OBJECT_ID":"2021-017AB","GP_ID":"214717102","APOAPSIS":"548.350","CLASSIFICATION_TYPE":"U","BSTAR":"0.00019926000000","PERIOD":"95.592","COUNTRY_CODE":"US","RCS_SIZE":"LARGE","ELEMENT_SET_NO":"999","MEAN_MOTION":"15.06395471","EPHEMERIS_TYPE":"0","MEAN_MOTION_DDOT":"0.0000000000000","INCLINATION":"53.0557","TLE_LINE1":"1 47747U 21017AB  22283.73996872  .00002687  00000-0  19926-3 0  9991","EPOCH":"2022-10-10T17:45:33.297408","ECCENTRICITY":"0.00016210","RA_OF_ASC_NODE":"34.8942","REV_AT_EPOCH":"9010","CENTER_NAME":"EARTH","MEAN_ELEMENT_THEORY":"SGP4"},{"OBJECT_TYPE":"PAYLOAD","PERIAPSIS":"545.919","LAUNCH_DATE":"2021-03-04","MEAN_MOTION_DOT":"0.00003595","ARG_OF_PERICENTER":"51.0439","CLASSIFICATION_TYPE":"U","BSTAR":"0.00026005000000","APOAPSIS":"548.447","REF_FRAME":"TEME","OBJECT_ID":"2021-017AC","GP_ID":"214715869","OBJECT_NAME":"STARLINK-2162","TLE_LINE2":"2 47748  53.0554  34.6337 0001825  51.0439 309.0713 15.06410070 90082","SITE":"AFETR","NORAD_CAT_ID":"47748","SEMIMAJOR_AXIS":"6925.318","TIME_SYSTEM":"UTC","FILE":"3601747","DECAY_DATE":null,"MEAN_ANOMALY":"309.0713","CENTER_NAME":"EARTH","RA_OF_ASC_NODE":"34.6337","REV_AT_EPOCH":"9008","ECCENTRICITY":"0.00018250","EPOCH":"2022-10-10T19:10:27.956352","MEAN_ELEMENT_THEORY":"SGP4","MEAN_MOTION":"15.06410070","EPHEMERIS_TYPE":"0","MEAN_MOTION_DDOT":"0.0000000000000","INCLINATION":"53.0554","RCS_SIZE":"MEDIUM","ELEMENT_SET_NO":"999","COUNTRY_CODE":"US","PERIOD":"95.592","TLE_LINE1":"1 47748U 21017AC  22283.79893468  .00003595  00000-0  26005-3 0  9990"},{"MEAN_ELEMENT_THEORY":"SGP4","ECCENTRICITY":"0.00013480","EPOCH":"2022-10-10T17:56:10.067136","CENTER_NAME":"EARTH","RA_OF_ASC_NODE":"34.8720","REV_AT_EPOCH":"9007","TLE_LINE1":"1 47749U 21017AD  22283.74733874 -.00000490  00000-0 -13971-4 0  9992","COUNTRY_CODE":"US","PERIOD":"95.592","MEAN_MOTION":"15.06402256","EPHEMERIS_TYPE":"0","MEAN_MOTION_DDOT":"0.0000000000000","INCLINATION":"53.0572","RCS_SIZE":"MEDIUM","ELEMENT_SET_NO":"999","APOAPSIS":"548.140","REF_FRAME":"TEME","OBJECT_ID":"2021-017AD","GP_ID":"214716620","CLASSIFICATION_TYPE":"U","BSTAR":"-0.00001397100000","ARG_OF_PERICENTER":"66.4838","OBJECT_TYPE":"PAYLOAD","PERIAPSIS":"546.273","LAUNCH_DATE":"2021-03-04","MEAN_MOTION_DOT":"-0.00000490","FILE":"3601747","DECAY_DATE":null,"MEAN_ANOMALY":"293.6293","SEMIMAJOR_AXIS":"6925.342","TIME_SYSTEM":"UTC","SITE":"AFETR","NORAD_CAT_ID":"47749","OBJECT_NAME":"STARLINK-2163","TLE_LINE2":"2 47749  53.0572  34.8720 0001348  66.4838 293.6293 15.06402256 90071"},{"ARG_OF_PERICENTER":"56.6554","MEAN_MOTION_DOT":"0.00002783","OBJECT_TYPE":"PAYLOAD","LAUNCH_DATE":"2021-03-04","PERIAPSIS":"546.045","REF_FRAME":"TEME","OBJECT_ID":"2021-017AE","GP_ID":"214716871","APOAPSIS":"548.378","CLASSIFICATION_TYPE":"U","BSTAR":"0.00020564000000","NORAD_CAT_ID":"47750","SITE":"AFETR","OBJECT_NAME":"STARLINK-2164","TLE_LINE2":"2 47750  53.0549  34.6646 0001684  56.6554 303.4596 15.06400649 90082","DECAY_DATE":null,"MEAN_ANOMALY":"303.4596","FILE":"3601747","SEMIMAJOR_AXIS":"6925.347","TIME_SYSTEM":"UTC","EPOCH":"2022-10-10T18:59:51.791424","ECCENTRICITY":"0.00016840","RA_OF_ASC_NODE":"34.6646","REV_AT_EPOCH":"9008","CENTER_NAME":"EARTH","MEAN_ELEMENT_THEORY":"SGP4","PERIOD":"95.592","COUNTRY_CODE":"US","RCS_SIZE":"LARGE","ELEMENT_SET_NO":"999","MEAN_MOTION":"15.06400649","EPHEMERIS_TYPE":"0","MEAN_MOTION_DDOT":"0.0000000000000","INCLINATION":"53.0549","TLE_LINE1":"1 47750U 21017AE  22283.79157166  .00002783  00000-0  20564-3 0  9993"},{"TLE_LINE1":"1 47751U 21017AF  22283.55660573  .00000594  00000-0  58800-4 0  9992","ELEMENT_SET_NO":"999","RCS_SIZE":"LARGE","MEAN_MOTION_DDOT":"0.0000000000000","INCLINATION":"53.0574","MEAN_MOTION":"15.06384894","EPHEMERIS_TYPE":"0","PERIOD":"95.593","COUNTRY_CODE":"US","MEAN_ELEMENT_THEORY":"SGP4","REV_AT_EPOCH":"9019","RA_OF_ASC_NODE":"25.7298","CENTER_NAME":"EARTH","EPOCH":"2022-10-10T13:21:30.735072","ECCENTRICITY":"0.00018560","TIME_SYSTEM":"UTC","SEMIMAJOR_AXIS":"6925.395","DECAY_DATE":null,"MEAN_ANOMALY":"313.7339","FILE":"3600948","OBJECT_NAME":"STARLINK-2168","TLE_LINE2":"2 47751  53.0574  25.7298 0001856  46.3804 313.7339 15.06384894 90194","SITE":"AFETR","NORAD_CAT_ID":"47751","BSTAR":"0.00005880000000","CLASSIFICATION_TYPE":"U","GP_ID":"214674601","OBJECT_ID":"2021-017AF","REF_FRAME":"TEME","APOAPSIS":"548.545","MEAN_MOTION_DOT":"0.00000594","PERIAPSIS":"545.975","LAUNCH_DATE":"2021-03-04","OBJECT_TYPE":"PAYLOAD","ARG_OF_PERICENTER":"46.3804"}];
